{"type": "FeatureCollection", "features": [ {"type": "Feature", "properties": {"norad_id": 35440, "name": "COSMOS 2251 DEB", "group": "cosmos-2251-debris", "lat": 16.654980052309867, "lon": 36.51342984549674, "alt_km": 710.4733038143204, "timestamp": "2025-12-05T14:45:15.693654+00:00", "meta": {"OBJECT_NAME": "COSMOS 2251 DEB", "OBJECT_ID": "1993-036AKJ", "EPOCH": "2025-12-04T00:25:11.600832", "MEAN_MOTION": 14.68734875, "ECCENTRICITY": 0.0068957, "INCLINATION": 74.0159, "RA_OF_ASC_NODE": 224.5259, "ARG_OF_PERICENTER": 7.4237, "MEAN_ANOMALY": 352.7936, "EPHEMERIS_TYPE": 0, "CLASSIFICATION_TYPE": "U", "NORAD_CAT_ID": 35440, "ELEMENT_SET_NO": 999, "REV_AT_EPOCH": 68637, "BSTAR": 0.0010432053, "MEAN_MOTION_DOT": 6.276e-05, "MEAN_MOTION_DDOT": 0}, "tle": {"line1": "1 35440U 93036AKJ 25338.01749538  .00006276  00000+0  10432-2 0  9997", "line2": "2 35440  74.0159 224.5259 0068957   7.4237 352.7936 14.68734875686379"}}, "geometry": {"type": "Point", "coordinates": [36.51342984549674, 16.654980052309867]}}, {"type": "Feature", "properties": {"norad_id": 35441, "name": "COSMOS 2251 DEB", "group": "cosmos-2251-debris", "lat": -72.57818278603524, "lon": -113.32391940969488, "alt_km": 681.6424979643461, "timestamp": "2025-12-05T14:45:15.693664+00:00", "meta": {"OBJECT_NAME": "COSMOS 2251 DEB", "OBJECT_ID": "1993-036AKK", "EPOCH": "2025-12-02T14:53:24.205920", "MEAN_MOTION": 14.6231334, "ECCENTRICITY": 0.00376111, "INCLINATION": 74.1347, "RA_OF_ASC_NODE": 317.3711, "ARG_OF_PERICENTER": 217.6417, "MEAN_ANOMALY": 142.2119, "EPHEMERIS_TYPE": 0, "CLASSIFICATION_TYPE": "U", "NORAD_CAT_ID": 35441, "ELEMENT_SET_NO": 999, "REV_AT_EPOCH": 87282, "BSTAR": 0.002198223, "MEAN_MOTION_DOT": 0.000112, "MEAN_MOTION_DDOT": 0}, "tle": {"line1": "1 35441U 93036AKK 25336.62041905  .00011200  00000+0  21982-2 0  9991", "line2": "2 35441  74.1347 317.3711 0037611 217.6417 142.2119 14.62313340872828"}}, "geometry": {"type": "Point", "coordinates": [-113.32391940969488, -72.57818278603524]}}, {"type": "Feature", "properties": {"norad_id": 35442, "name": "COSMOS 2251 DEB", "group": "cosmos-2251-debris", "lat": -35.89806050051614, "lon": 101.30714118552322, "alt_km": 625.9253854720273, "timestamp": "2025-12-05T14:45:15.693674+00:00", "meta": {"OBJECT_NAME": "COSMOS 2251 DEB", "OBJECT_ID": "1993-036AKL", "EPOCH": "2025-12-03T15:59:55.163616", "MEAN_MOTION": 14.83772489, "ECCENTRICITY": 0.00044741, "INCLINATION": 74.0258, "RA_OF_ASC_NODE": 117.135, "ARG_OF_PERICENTER": 128.1598, "MEAN_ANOMALY": 231.9984, "EPHEMERIS_TYPE": 0, "CLASSIFICATION_TYPE": "U", "NORAD_CAT_ID": 35442, "ELEMENT_SET_NO": 999, "REV_AT_EPOCH": 87218, "BSTAR": 0.004565269, "MEAN_MOTION_DOT": 0.00037992, "MEAN_MOTION_DDOT": 0}, "tle": {"line1": "1 35442U 93036AKL 25337.66661069  .00037992  00000+0  45653-2 0  9993", "line2": "2 35442  74.0258 117.1350 0004474 128.1598 231.9984 14.83772489872182"}}, "geometry": {"type": "Point", "coordinates": [101.30714118552322, -35.89806050051614]}}, {"type": "Feature", "properties": {"norad_id": 35443, "name": "COSMOS 2251 DEB", "group": "cosmos-2251-debris", "lat": 43.35734464417514, "lon": 1.7731282954520475, "alt_km": 571.1033161959658, "timestamp": "2025-12-05T14:45:15.693685+00:00", "meta": {"OBJECT_NAME": "COSMOS 2251 DEB", "OBJECT_ID": "1993-036AKM", "EPOCH": "2025-12-03T11:10:41.919744", "MEAN_MOTION": 14.95510344, "ECCENTRICITY": 0.0073868, "INCLINATION": 73.9866, "RA_OF_ASC_NODE": 350.3879, "ARG_OF_PERICENTER": 135.256, "MEAN_ANOMALY": 225.4616, "EPHEMERIS_TYPE": 0, "CLASSIFICATION_TYPE": "U", "NORAD_CAT_ID": 35443, "ELEMENT_SET_NO": 999, "REV_AT_EPOCH": 86739, "BSTAR": 0.0041144703, "MEAN_MOTION_DOT": 0.00048434, "MEAN_MOTION_DDOT": 0}, "tle": {"line1": "1 35443U 93036AKM 25337.46576296  .00048434  00000+0  41145-2 0  9994", "line2": "2 35443  73.9866 350.3879 0073868 135.2560 225.4616 14.95510344867394"}}, "geometry": {"type": "Point", "coordinates": [1.7731282954520475, 43.35734464417514]}}, {"type": "Feature", "properties": {"norad_id": 35445, "name": "COSMOS 2251 DEB", "group": "cosmos-2251-debris", "lat": -44.375350304170055, "lon": -62.67680667856087, "alt_km": 699.7459459918537, "timestamp": "2025-12-05T14:45:15.693695+00:00", "meta": {"OBJECT_NAME": "COSMOS 2251 DEB", "OBJECT_ID": "1993-036AKP", "EPOCH": "2025-12-01T05:37:58.814400", "MEAN_MOTION": 14.58784895, "ECCENTRICITY": 0.0143608, "INCLINATION": 74.0353, "RA_OF_ASC_NODE": 321.9314, "ARG_OF_PERICENTER": 51.7494, "MEAN_ANOMALY": 309.6492, "EPHEMERIS_TYPE": 0, "CLASSIFICATION_TYPE": "U", "NORAD_CAT_ID": 35445, "ELEMENT_SET_NO": 999, "REV_AT_EPOCH": 87161, "BSTAR": 0.0018521, "MEAN_MOTION_DOT": 9.974e-05, "MEAN_MOTION_DDOT": 0}, "tle": {"line1": "1 35445U 93036AKP 25335.23470850  .00009974  00000+0  18521-2 0  9996", "line2": "2 35445  74.0353 321.9314 0143608  51.7494 309.6492 14.58784895871615"}}, "geometry": {"type": "Point", "coordinates": [-62.67680667856087, -44.375350304170055]}}, {"type": "Feature", "properties": {"norad_id": 35446, "name": "COSMOS 2251 DEB", "group": "cosmos-2251-debris", "lat": 68.48768206774777, "lon": 105.12860019267971, "alt_km": 652.0589868002571, "timestamp": "2025-12-05T14:45:15.693706+00:00", "meta": {"OBJECT_NAME": "COSMOS 2251 DEB", "OBJECT_ID": "1993-036AKQ", "EPOCH": "2025-11-30T07:11:01.736160", "MEAN_MOTION": 14.5460995, "ECCENTRICITY": 0.00744354, "INCLINATION": 74.0466, "RA_OF_ASC_NODE": 341.7043, "ARG_OF_PERICENTER": 103.5149, "MEAN_ANOMALY": 257.4321, "EPHEMERIS_TYPE": 0, "CLASSIFICATION_TYPE": "U", "NORAD_CAT_ID": 35446, "ELEMENT_SET_NO": 999, "REV_AT_EPOCH": 87827, "BSTAR": 0.00010353473, "MEAN_MOTION_DOT": 4.29e-06, "MEAN_MOTION_DDOT": 0}, "tle": {"line1": "1 35446U 93036AKQ 25334.29932565  .00000429  00000+0  10353-3 0  9990", "line2": "2 35446  74.0466 341.7043 0074435 103.5149 257.4321 14.54609950878278"}}, "geometry": {"type": "Point", "coordinates": [105.12860019267971, 68.48768206774777]}}, {"type": "Feature", "properties": {"norad_id": 35448, "name": "COSMOS 2251 DEB", "group": "cosmos-2251-debris", "lat": -25.288824322271896, "lon": 95.24795584934806, "alt_km": 712.3634547539777, "timestamp": "2025-12-05T14:45:15.693716+00:00", "meta": {"OBJECT_NAME": "COSMOS 2251 DEB", "OBJECT_ID": "1993-036AKS", "EPOCH": "2025-12-04T00:53:58.501824", "MEAN_MOTION": 14.5413126, "ECCENTRICITY": 0.00111642, "INCLINATION": 73.9026, "RA_OF_ASC_NODE": 106.0942, "ARG_OF_PERICENTER": 285.9815, "MEAN_ANOMALY": 74.0116, "EPHEMERIS_TYPE": 0, "CLASSIFICATION_TYPE": "U", "NORAD_CAT_ID": 35448, "ELEMENT_SET_NO": 999, "REV_AT_EPOCH": 87208, "BSTAR": 0.0023041751, "MEAN_MOTION_DOT": 9.734e-05, "MEAN_MOTION_DDOT": 0}, "tle": {"line1": "1 35448U 93036AKS 25338.03748266  .00009734  00000+0  23042-2 0  9997", "line2": "2 35448  73.9026 106.0942 0011164 285.9815  74.0116 14.54131260872087"}}, "geometry": {"type": "Point", "coordinates": [95.24795584934806, -25.288824322271896]}}, {"type": "Feature", "properties": {"norad_id": 35451, "name": "COSMOS 2251 DEB", "group": "cosmos-2251-debris", "lat": 72.68586027985621, "lon": -174.32569286381573, "alt_km": 449.59250613300355, "timestamp": "2025-12-05T14:45:15.693726+00:00", "meta": {"OBJECT_NAME": "COSMOS 2251 DEB", "OBJECT_ID": "1993-036AKV", "EPOCH": "2025-12-02T09:42:30.995424", "MEAN_MOTION": 15.34019463, "ECCENTRICITY": 0.00397741, "INCLINATION": 73.9303, "RA_OF_ASC_NODE": 124.9673, "ARG_OF_PERICENTER": 13.4643, "MEAN_ANOMALY": 346.7612, "EPHEMERIS_TYPE": 0, "CLASSIFICATION_TYPE": "U", "NORAD_CAT_ID": 35451, "ELEMENT_SET_NO": 999, "REV_AT_EPOCH": 67247, "BSTAR": 0.0016761251, "MEAN_MOTION_DOT": 0.00056987, "MEAN_MOTION_DDOT": 0}, "tle": {"line1": "1 35451U 93036AKV 25336.40452541  .00056987  00000+0  16761-2 0  9990", "line2": "2 35451  73.9303 124.9673 0039774  13.4643 346.7612 15.34019463672479"}}, "geometry": {"type": "Point", "coordinates": [-174.32569286381573, 72.68586027985621]}}, {"type": "Feature", "properties": {"norad_id": 35453, "name": "COSMOS 2251 DEB", "group": "cosmos-2251-debris", "lat": 72.39046342325163, "lon": 98.12811882555432, "alt_km": 754.8805637924761, "timestamp": "2025-12-05T14:45:15.693736+00:00", "meta": {"OBJECT_NAME": "COSMOS 2251 DEB", "OBJECT_ID": "1993-036AKX", "EPOCH": "2025-12-02T12:53:58.122528", "MEAN_MOTION": 14.3790654, "ECCENTRICITY": 0.00680216, "INCLINATION": 74.0102, "RA_OF_ASC_NODE": 39.1945, "ARG_OF_PERICENTER": 175.6131, "MEAN_ANOMALY": 184.5634, "EPHEMERIS_TYPE": 0, "CLASSIFICATION_TYPE": "U", "NORAD_CAT_ID": 35453, "ELEMENT_SET_NO": 999, "REV_AT_EPOCH": 86072, "BSTAR": 0.00098540606, "MEAN_MOTION_DOT": 3.03e-05, "MEAN_MOTION_DDOT": 0}, "tle": {"line1": "1 35453U 93036AKX 25336.53747827  .00003030  00000+0  98541-3 0  9998", "line2": "2 35453  74.0102  39.1945 0068021 175.6131 184.5634 14.37906540860721"}}, "geometry": {"type": "Point", "coordinates": [98.12811882555432, 72.39046342325163]}}, {"type": "Feature", "properties": {"norad_id": 35455, "name": "COSMOS 2251 DEB", "group": "cosmos-2251-debris", "lat": 3.565756237125114, "lon": -50.797797686032695, "alt_km": 684.4476620811456, "timestamp": "2025-12-05T14:45:15.693746+00:00", "meta": {"OBJECT_NAME": "COSMOS 2251 DEB", "OBJECT_ID": "1993-036AKZ", "EPOCH": "2025-12-03T16:20:58.881984", "MEAN_MOTION": 14.49223427, "ECCENTRICITY": 0.00987252, "INCLINATION": 74.028, "RA_OF_ASC_NODE": 311.8069, "ARG_OF_PERICENTER": 57.6143, "MEAN_ANOMALY": 303.4522, "EPHEMERIS_TYPE": 0, "CLASSIFICATION_TYPE": "U", "NORAD_CAT_ID": 35455, "ELEMENT_SET_NO": 999, "REV_AT_EPOCH": 86412, "BSTAR": 0.0020359442, "MEAN_MOTION_DOT": 8.236e-05, "MEAN_MOTION_DDOT": 0}, "tle": {"line1": "1 35455U 93036AKZ 25337.68123706  .00008236  00000+0  20359-2 0  9995", "line2": "2 35455  74.0280 311.8069 0098725  57.6143 303.4522 14.49223427864128"}}, "geometry": {"type": "Point", "coordinates": [-50.797797686032695, 3.565756237125114]}}]}